# From NK 1615
P/1996 R2 (Lagerkvist),e,2.5990,40.0435,333.4919,3.772523,0.1345105,0.31424406,315.6541,07/21.0/2025,2000,g 11.5,4.0
# From MPC 75703
P/1998 VS24 (LINEAR),e,5.0294,159.0386,244.8933,4.520484,0.1025479,0.24356626,280.1266,07/21.0/2025,2000,g 13.0,2.0
# From MPEC 2025-N64
C/1999 J2 (Skiff),h,04/07.5365/2000,86.4127,50.3211,127.0098,1.000813,7.083067,2000,2.0,4.0
# From NK 731
P/1999 RO28 (LONEOS),e,7.5671,137.8410,231.3537,3.425135,0.1554847,0.67217555,344.2491,07/21.0/2025,2000,g 20.0,2.0
# From MPC 75704
P/1999 XN120 (Catalina),e,5.0299,285.2394,161.5757,4.184266,0.1151530,0.21181935,342.3255,07/21.0/2025,2000,g 13.5,2.0
# From NK 744
P/2000 R2 (LINEAR),e,11.6788,160.2702,176.5820,3.468921,0.1525501,0.53062972,339.5129,07/21.0/2025,2000,g 18.0,4.0
# From MPC 43019
P/2001 H5 (NEAT),e,8.3722,328.6763,224.5824,6.094291,0.0655118,0.59926340,234.2577,07/21.0/2025,2000,g 12.0,4.0
# From MPEC 2023-UR6
P/2002 EJ57 (LINEAR),e,4.9894,330.2263,167.2813,6.455145,0.0600959,0.59396097,155.5016,07/21.0/2025,2000,g 12.5,4.0
# From MPEC 2025-MC0
C/2002 J4 (NEAT),h,09/24.1638/2003,46.2201,70.7676,231.0772,1.001466,3.679207,2000,5.5,4.0
# From MPC 75007
C/2002 VQ94 (LINEAR),e,70.6519,35.0920,99.8054,186.8515,0.0003859,0.96385418,2.7396,07/21.0/2025,2000,g  9.5,2.0
# From MPC184407
C/2003 A2 (Gleason),e,8.0704,154.4980,346.4713,5785,0.0000022,0.99803651,0.0000,11/05.6189/2003,2000,g  3.5,4.0
# From MPC 50354
P/2003 F2 (NEAT),e,11.6360,358.9300,192.9810,6.542244,0.0588998,0.53842846,122.2892,07/21.0/2025,2000,g 16.5,2.0
# From MPC105235
P/2003 T12 (SOHO),e,11.0231,174.5757,219.7943,2.584097,0.2372689,0.77015798,90.7021,07/21.0/2025,2000,g 17.0,4.0
# From MPEC 2022-YN2
P/2004 FY140 (LINEAR),e,2.1628,327.2620,254.2598,4.968819,0.0889865,0.19277423,308.2837,07/21.0/2025,2000,g 12.5,2.0
# From MPC 53304
P/2004 R3 (LINEAR-NEAT),e,12.8023,305.1206,37.1908,4.747113,0.0952927,0.25453633,133.8394,07/21.0/2025,2000,g 14.5,4.0
# From MPC 75705
P/2004 V5 (LINEAR-Hill),e,19.3363,47.7408,87.1867,8.044243,0.0431993,0.44883955,327.7692,07/21.0/2025,2000,g  8.0,4.0
# From MPC 75705
P/2004 V5-B (LINEAR-Hill),e,19.3364,47.7412,87.1909,8.044501,0.0431972,0.44885677,327.7287,07/21.0/2025,2000,g  8.0,4.0
# From MPC 54164
P/2005 E1 (Tubbiolo),e,4.2606,335.4953,193.9284,7.070557,0.0524232,0.37733057,34.6957,07/21.0/2025,2000,g 10.0,4.0
# From MPC 79019
P/2005 J1 (McNaught),e,31.7406,268.7998,338.9127,3.575156,0.1458014,0.56937489,1.3559,07/21.0/2025,2000,g 16.5,4.0
# From MPC 74246
P/2005 L1 (McNaught),e,8.8038,126.7918,161.0546,3.914336,0.1272673,0.25741156,164.7493,07/21.0/2025,2000,g  9.5,4.0
# From MPC 75706
P/2005 S2 (Skiff),e,3.1386,161.3324,230.0153,7.983982,0.0436893,0.19845370,303.8513,07/21.0/2025,2000,g  7.5,4.0
# From MPC 73461
P/2005 T3 (Read),e,6.2323,27.6218,7.1010,7.573320,0.0472906,0.17425905,341.3220,07/21.0/2025,2000,g  9.0,4.0
# From MPC 73461
P/2005 T4 (SWAN),e,160.2482,25.8190,41.7901,9.351880,0.0344632,0.93073241,248.5899,07/21.0/2025,2000,g 15.0,4.0
# From MPC 75706
P/2005 T5 (Broughton),e,21.3837,57.0617,304.7832,7.258149,0.0504040,0.55173975,1.8168,07/21.0/2025,2000,g 11.0,4.0
# From MPC 75707
P/2006 HR30 (Siding Spring),e,31.9583,309.7557,117.5154,7.796297,0.0452764,0.84360678,306.7419,07/21.0/2025,2000,g 11.0,4.0
# From MPC 75707
P/2007 C2 (Catalina),e,8.6130,275.2339,180.1089,7.027643,0.0529041,0.47455544,347.1377,07/21.0/2025,2000,g 10.0,4.0
# From MPC 84315
C/2007 D1 (LINEAR),e,41.5141,171.0318,339.7591,1243,0.0000225,0.99297165,0.0000,06/14.4203/2007,2000,g  3.5,4.0
# From MPEC 2024-GJ3
P/2007 K2 (Gibbs),e,7.5929,188.4022,347.0793,7.379735,0.0491635,0.68652934,332.7441,07/21.0/2025,2000,g 14.0,4.0
# From MPC 60925
P/2007 Q2 (Gilmore),e,10.1932,172.2274,162.8455,5.660976,0.0731757,0.66874349,124.3343,07/21.0/2025,2000,g 16.0,4.0
# From MPEC 2025-N64
C/2007 Q3 (Siding Spring),e,65.7843,149.3032,1.9873,4101,0.0000038,0.99945440,0.0000,10/03.8994/2009,2000,g  4.5,4.0
# From MPC 73462
P/2007 S1 (Zhao),e,5.9630,141.3263,245.2763,3.818623,0.1320821,0.33790169,134.5405,07/21.0/2025,2000,g 13.0,4.0
# From MPEC 2024-GJ3
C/2007 S2 (Lemmon),e,16.9174,296.1313,210.1439,12.49390,0.0223181,0.55705285,137.5513,07/21.0/2025,2000,g  6.5,4.0
# From MPC184407
P/2007 SA24 (Lemmon),e,17.1050,233.2134,107.7873,6.221221,0.0635171,0.56885097,61.1338,07/21.0/2025,2000,g 12.6,4.0
# From MPC 61994
P/2007 T2 (Kowalski),e,9.7477,3.3935,359.6669,3.043516,0.1856268,0.78544070,113.5142,07/21.0/2025,2000,g 18.5,4.0
# From MPEC 2024-GJ3
C/2008 E1 (Catalina),e,34.8642,188.9157,270.3697,10.76358,0.0279106,0.55292103,172.3756,07/21.0/2025,2000,g  7.0,4.0
# From MPC 64114
P/2008 O3 (Boattini),e,32.3083,47.6072,341.2025,8.208646,0.0419080,0.69612415,261.6520,07/21.0/2025,2000,g 13.0,4.0
# From MPC 75710
P/2008 Y3 (McNaught),e,38.7791,262.8380,238.1373,8.036787,0.0432594,0.44828175,261.8868,07/21.0/2025,2000,g  8.5,4.0
# From MPC 75710
P/2009 B1 (Boattini),e,22.2597,297.1089,129.0070,6.724831,0.0565174,0.63592660,340.5331,07/21.0/2025,2000,g 13.0,4.0
# From MPC 66466
C/2009 G1 (STEREO),e,108.0187,120.8813,175.5033,451.2859,0.0001028,0.99748456,0.0000,04/17.1987/2009,2000,g  9.0,4.0
# From MPC184407
P/2009 KF37,e,11.3882,111.9432,143.9677,4.112283,0.1181897,0.31059370,338.6397,07/21.0/2025,2000,g 14.9,4.0
# From MPC 75710
P/2009 O3 (Hill),e,16.2507,183.7171,154.4173,7.772775,0.0454820,0.68609893,268.3548,07/21.0/2025,2000,g 12.5,4.0
# From MPC 68902
P/2009 Q5 (McNaught),e,40.9529,160.2024,209.2055,7.426080,0.0487040,0.60929060,281.5245,07/21.0/2025,2000,g 10.0,4.0
# From MPC112389
P/2009 T2 (La Sagra),e,27.5976,216.3087,216.0110,7.707786,0.0460585,0.76747915,260.9120,07/21.0/2025,2000,g 14.0,4.0
# From MPC105235
P/2009 WX51 (Catalina),e,9.5981,31.5221,118.2947,3.082437,0.1821222,0.73969299,311.1791,07/21.0/2025,2000,g 19.0,2.0
# From MPC 74247
P/2009 Y2 (Kowalski),e,29.9730,262.0826,172.2475,6.537557,0.0589632,0.63738969,330.5923,07/21.0/2025,2000,g 13.0,4.0
# From MPEC 2025-MC0
C/2010 B1 (Cardinal),e,102.2552,277.2238,211.6070,2513,0.0000078,0.99882554,0.0000,02/03.4170/2011,2000,g  7.5,4.0
# From MPC 75008
P/2010 C1 (Scotti),e,9.1157,141.5881,2.9024,7.130221,0.0517666,0.26398239,300.0262,07/21.0/2025,2000,g  9.5,4.0
# From MPC 75008
P/2010 D2 (WISE),e,57.1362,319.8770,120.0211,6.716285,0.0566253,0.45168564,319.3142,07/21.0/2025,2000,g 16.0,4.0
# From MPC 75009
P/2010 E2 (Jarnac),e,15.4281,177.8289,8.2095,8.634897,0.0388435,0.72097266,217.7121,07/21.0/2025,2000,g 14.0,4.0
# From MPC 72851
P/2010 H2 (Vales),e,14.2791,64.1890,128.0530,3.834332,0.1312712,0.19778285,17.5020,07/21.0/2025,2000,g  6.0,4.0
# From MPC 70361
P/2010 H3 (SOHO),e,23.1472,77.1806,26.0740,3.035175,0.1863926,0.98557732,0.0000,05/25.2360/2026,2000,g 20.0,2.0
# From MPEC 2024-GJ3
P/2010 H4 (Scotti),e,2.3178,44.7470,179.0793,6.618256,0.0578880,0.26714941,321.2387,07/21.0/2025,2000,g 10.5,4.0
# From MPC 74637
P/2010 H5 (Scotti),e,14.0523,24.4969,174.9822,7.171222,0.0513233,0.15546098,288.0786,07/21.0/2025,2000,g 13.0,2.0
# From MPC 98558
P/2010 J3 (McMillan),e,13.2258,106.5404,157.4132,8.988180,0.0365760,0.72417968,199.7701,07/21.0/2025,2000,g 11.0,4.0
# From MPC 84315
P/2010 JC81 (WISE),e,38.7641,30.8487,12.5092,8.102773,0.0427320,0.77805295,221.7873,07/21.0/2025,2000,g  9.0,4.0
# From MPC184408
P/2010 KG43,e,13.6512,325.6674,354.4499,5.582111,0.0747320,0.48281464,51.8877,07/21.0/2025,2000,g 12.7,4.0
# From MPEC 2024-H77
A/2010 LN135,e,64.4423,184.8611,181.5741,40560,0.0000001,0.99995691,0.0000,05/25.0404/2011,2000,g 14.0,2.0
# From MPEC 2025-MC0
P/2010 LH155,e,8.8068,221.1200,308.5249,3.744216,0.1360388,0.40599837,14.0079,07/21.0/2025,2000,g 14.3,4.0
# From MPC 74248
P/2010 T2 (PANSTARRS),e,7.8577,57.7945,350.1281,5.584477,0.0746845,0.32543316,38.3846,07/21.0/2025,2000,g 11.5,4.0
# From MPC 82316
P/2010 U1 (Boattini),e,8.2273,280.8066,86.5439,6.485758,0.0596710,0.24832415,335.1792,07/21.0/2025,2000,g  9.5,4.0
# From MPEC 2023-J95
C/2010 U3 (Boattini),e,55.5441,42.9927,88.0875,35629,0.0000001,0.99976314,0.0000,02/28.1783/2019,2000,g  1.0,4.0
# From MPC 79021
P/2010 UH55 (Spacewatch),e,8.0370,232.8217,225.3223,6.647724,0.0575035,0.56470172,299.7761,07/21.0/2025,2000,g 11.0,4.0
# From MPC 84021
P/2011 C2 (Gibbs),e,10.8957,11.9615,160.2824,7.408530,0.0488772,0.27122755,243.2399,07/21.0/2025,2000,g  9.0,4.0
# From MPC 79866
P/2011 FR143 (Lemmon),e,15.9618,190.8459,349.6380,6.883162,0.0545786,0.45263051,289.5333,07/21.0/2025,2000,g 14.0,2.0
# From MPC 82317
P/2011 JB15 (Spacewatch-Boattini),e,19.1257,153.5859,110.6820,7.380715,0.0491537,0.31482376,243.7490,07/21.0/2025,2000,g  9.0,4.0
# From MPC 87913
P/2011 N1 (ASH),e,35.7857,77.6282,330.4993,6.233405,0.0633310,0.54544303,303.4474,07/21.0/2025,2000,g 11.5,4.0
# From MPEC 2022-ED3
P/2011 P1 (McNaught),e,5.6515,4.2559,349.1718,7.461882,0.0483539,0.32630753,264.2727,07/21.0/2025,2000,g  9.0,4.0
# From MPEC 2022-HC2
P/2011 S1 (Gibbs),e,2.6884,218.8974,192.9654,8.596917,0.0391012,0.20091885,155.7568,07/21.0/2025,2000,g  8.0,4.0
# From MPEC 2023-UR6
P/2011 V1 (Boattini),e,7.3828,46.4916,269.6051,3.857608,0.1300849,0.54836684,324.0258,07/21.0/2025,2000,g 15.5,4.0
# From MPC 82718
P/2011 W1 (PANSTARRS),e,3.7160,161.8052,283.0442,4.674553,0.0975200,0.28845539,122.6326,07/21.0/2025,2000,g 11.5,4.0
# From MPC 79342
P/2011 Y2 (Boattini),e,6.3922,309.3198,132.0757,6.228139,0.0634113,0.71120261,309.0678,07/21.0/2025,2000,g 15.0,4.0
# From MPEC 2022-K19
P/2012 B1 (PANSTARRS),e,7.6053,36.2091,161.9050,6.542655,0.0588943,0.41017051,260.3889,07/21.0/2025,2000,g  9.0,4.0
# From MPC 78590
P/2012 C3 (PANSTARRS),e,9.0920,135.3677,344.9542,9.748681,0.0323806,0.63011148,359.9758,10/06.0/2011,2000,g 13.0,4.0
# From MPC 84931
P/2012 F2 (PANSTARRS),e,14.6978,226.9485,33.1597,6.348038,0.0616233,0.54064144,277.6068,07/21.0/2025,2000,g 12.0,4.0
# From MPEC 2022-ED3
P/2012 G1 (PANSTARRS),e,12.1681,283.2362,266.0142,4.162381,0.1160623,0.32959067,203.7983,07/21.0/2025,2000,g 15.0,4.0
# From MPC 80898
